NORAD_CAT_ID,OBJECT_NAME,OBJECT_TYPE,EPOCH,MEAN_MOTION,ECCENTRICITY,INCLINATION,RA_OF_ASC_NODE,ARG_OF_PERICENTER,MEAN_ANOMALY,BSTAR,MEAN_MOTION_DOT,MEAN_MOTION_DDOT,TLE_LINE0,TLE_LINE1,TLE_LINE2,SEMIMAJOR_AXIS,PERIOD,APOGEE,PERIGEE,DECAYED
50840.0,STARLINK-3295,PAYLOAD,2022-01-11 20:00:01,15.94892054,0.0053325,53.2175,175.5726,179.5313,218.5481,-0.0019962,-0.00916526,0.00026905,0 STARLINK-3295,1 50840U 22001AP  22011.83334491 -.00916526  26905-3 -19962-2 0  9998,2 50840  53.2175 175.5726 0053325 179.5313 218.5481 15.94892054  2088,6666.752,90.288,324.168,253.067,0.0
50840.0,STARLINK-3295,PAYLOAD,2022-01-12 06:00:00,15.94143871,0.0049872,53.2174,173.4427,181.2819,89.9792,-0.0020468,-0.00884576,0.00025048,0 STARLINK-3295,1 50840U 22001AP  22012.25001157 -.00884576  25048-3 -20468-2 0  9994,2 50840  53.2174 173.4427 0049872 181.2819  89.9792 15.94143871  2143,6668.8380000000025,90.331,323.962,257.444,0.0
50840.0,STARLINK-3295,PAYLOAD,2022-01-12 14:00:01,15.93577738,0.0046739,53.2177,171.7429,182.6487,202.352,-0.0022426,-0.00924356,0.00026964,0 STARLINK-3295,1 50840U 22001AP  22012.58334491 -.00924356  26964-3 -22426-2 0  9995,2 50840  53.2177 171.7429 0046739 182.6487 202.3520 15.93577738  1437,6670.417,90.363,323.459,261.105,0.0
50840.0,STARLINK-3295,PAYLOAD,2022-01-12 16:00:00,15.93405914,0.0046026,53.2175,171.3186,182.7019,320.6345,-0.0021424,-0.0087227,0.00024244,0 STARLINK-3295,1 50840U 22001AP  22012.66667824 -.00872270  24244-3 -21424-2 0  9996,2 50840  53.2175 171.3186 0046026 182.7019 320.6345 15.93405914  2214,6670.897,90.372,323.465,262.058,0.0
50840.0,STARLINK-3295,PAYLOAD,2022-01-12 22:00:00,15.92966899,0.0043714,53.2173,170.045,185.4028,312.6493,-0.0022178,-0.00872376,0.00024144,0 STARLINK-3295,1 50840U 22001AP  22012.91667824 -.00872376  24144-3 -22178-2 0  9997,2 50840  53.2173 170.0450 0043714 185.4028 312.6493 15.92966899  2255,6672.121999999999,90.397,323.154,264.821,0.0
50840.0,STARLINK-3295,PAYLOAD,2022-01-13 14:00:01,15.91818912,0.0038278,53.2174,166.6501,187.6517,174.3677,-0.0025519,-0.00922618,0.00026411,0 STARLINK-3295,1 50840U 22001AP  22013.58334491 -.00922618  26411-3 -25519-2 0  9998,2 50840  53.2174 166.6501 0038278 187.6517 174.3677 15.91818912  2359,6675.33,90.463,322.747,271.643,0.0
50840.0,STARLINK-3295,PAYLOAD,2022-01-13 20:00:01,15.91376961,0.0035952,53.2174,165.3803,190.68,164.6039,-0.0026206,-0.00917889,0.00026055,0 STARLINK-3295,1 50840U 22001AP  22013.83334491 -.00917889  26055-3 -26206-2 0  9998,2 50840  53.2174 165.3803 0035952 190.6800 164.6039 15.91376961  2396,6676.566,90.488,322.434,274.427,0.0
50840.0,STARLINK-3295,PAYLOAD,2022-01-13 22:00:00,15.91218597,0.0035236999999999,53.2172,164.9565,190.9958,281.9588,-0.0025729,-0.0089175,0.00024693,0 STARLINK-3295,1 50840U 22001AP  22013.91667824 -.00891750  24693-3 -25729-2 0  9999,2 50840  53.2172 164.9565 0035237 190.9958 281.9588 15.91218597  1646,6677.009,90.497,322.402,275.346,0.0
50840.0,STARLINK-3295,PAYLOAD,2022-01-14 06:00:00,15.90622285,0.0032488,53.2175,163.261,193.5931,29.594,-0.0026144,-0.0087074,0.00023519,0 STARLINK-3295,1 50840U 22001AP  22014.25001157 -.00870740  23519-3 -26144-2 0  9992,2 50840  53.2175 163.2610 0032488 193.5931  29.5940 15.90622285  2468,6678.677,90.531,322.24,278.845,0.0
50840.0,STARLINK-3295,PAYLOAD,2022-01-14 14:00:01,15.90058554,0.0029698,53.2176,161.5705,196.1568,136.5449,-0.0028586,-0.00916766,0.0002566999999999,0 STARLINK-3295,1 50840U 22001AP  22014.58334491 -.00916766  25670-3 -28586-2 0  9999,2 50840  53.2176 161.5705 0029698 196.1568 136.5449 15.90058554  2510,6680.255999999999,90.563,321.96,282.282,0.0
50840.0,STARLINK-3295,PAYLOAD,2022-01-14 22:00:00,15.89470858,0.002714,53.2171,159.881,199.0704,242.4503,-0.0029511,-0.00912212,0.00025298,0 STARLINK-3295,1 50840U 22001AP  22014.91667824 -.00912212  25298-3 -29511-2 0  9992,2 50840  53.2171 159.8810 0027140 199.0704 242.4503 15.89470858  2573,6681.901999999999,90.596,321.902,285.633,0.0
50840.0,STARLINK-3295,PAYLOAD,2022-01-15 04:00:00,15.8903122,0.0024849,53.2174,158.6125,202.289,230.3851,-0.0030344,-0.00912253,0.00025196,0 STARLINK-3295,1 50840U 22001AP  22015.16667824 -.00912253  25196-3 -30344-2 0  9998,2 50840  53.2174 158.6125 0024849 202.2890 230.3851 15.89031220  2611,6683.135,90.621,321.607,288.393,0.0
50840.0,STARLINK-3295,PAYLOAD,2022-01-15 14:00:01,15.88293508,0.0021711,53.2175,156.5039,206.2068,90.9087,-0.003133,-0.00901647,0.00024499,0 STARLINK-3295,1 50840U 22001AP  22015.58335648 -.00901647  24499-3 -31330-2 0  9996,2 50840  53.2175 156.5039 0021711 206.2068  90.9087 15.88293508  2674,6685.204000000002,90.663,321.583,292.555,0.0
50840.0,STARLINK-3295,PAYLOAD,2022-01-15 22:00:01,15.87719452,0.0019169,53.2171,154.8183,211.1029,192.7148,-0.003324,-0.00925095,0.00025525,0 STARLINK-3295,1 50840U 22001AP  22015.91668981 -.00925095  25525-3 -33240-2 0  9998,2 50840  53.2171 154.8183 0019169 211.1029 192.7148 15.87719452  2733,6686.815,90.696,321.498,295.862,0.0
50840.0,STARLINK-3295,PAYLOAD,2022-01-16 06:00:00,15.8711447,0.0016302,53.2172,153.1319,217.1422,292.6202,-0.0032959,-0.00886584,0.00023507,0 STARLINK-3295,1 50840U 22001AP  22016.25001157 -.00886584  23507-3 -32959-2 0  9995,2 50840  53.2172 153.1319 0016302 217.1422 292.6202 15.87114470  2781,6688.515,90.731,321.283,299.476,0.0
50840.0,STARLINK-3295,PAYLOAD,2022-01-16 14:00:01,15.86526776,0.0014062,53.2173,151.4505,224.5216,30.5393,-0.003389,-0.00809691,0.0,0 STARLINK-3295,1 50840U 22001AP  22016.58334491 -.00809691  00000-0 -33890-2 0  9990,2 50840  53.2173 151.4505 0014062 224.5216  30.5393 15.86526776  2071,6690.166,90.764,321.439,302.623,0.0
50840.0,STARLINK-3295,PAYLOAD,2022-01-16 22:00:00,15.85960237,0.0012304,53.217,149.7693,234.0495,125.5988,-0.0036449,-0.008417,0.0,0 STARLINK-3295,1 50840U 22001AP  22016.91667824 -.00841700  00000-0 -36449-2 0  9996,2 50840  53.2170 149.7693 0012304 234.0495 125.5988 15.85960237  2122,6691.759,90.797,321.858,305.391,0.0
50840.0,STARLINK-3295,PAYLOAD,2022-01-17 06:00:00,15.85366546,0.0010297,53.2173,148.08700000000005,246.6837,216.8598,-0.0037008,-0.00829138,0.0,0 STARLINK-3295,1 50840U 22001AP  22017.25001157 -.00829138  00000-0 -37008-2 0  9998,2 50840  53.2173 148.0870 0010297 246.6837 216.8598 15.85366546  2946,6693.43,90.831,322.187,308.403,0.0
50840.0,STARLINK-3295,PAYLOAD,2022-01-17 14:00:01,15.84767601,0.0008962999999999,53.2175,146.41,260.2414,306.4922,-0.0036984,-0.00805715,0.0,0 STARLINK-3295,1 50840U 22001AP  22017.58334491 -.00805715  00000-0 -36984-2 0  9991,2 50840  53.2175 146.4100 0008963 260.2414 306.4922 15.84767601  2231,6695.116,90.865,322.982,310.98,0.0
50840.0,STARLINK-3295,PAYLOAD,2022-01-17 22:00:00,15.84184356,0.0007289,53.2171,144.7328,268.1699,41.0448,-0.0038219,-0.00807956,0.0,0 STARLINK-3295,1 50840U 22001AP  22017.91667824 -.00807956  00000-0 -38219-2 0  9999,2 50840  53.2171 144.7328 0007289 268.1699  41.0448 15.84184356  2282,6696.759,90.899,323.506,313.743,0.0
50840.0,STARLINK-3295,PAYLOAD,2022-01-18 14:00:01,15.83027688,0.0001476,53.2172,141.3826,260.1944,251.8685,-0.0041994,-0.00834182,0.0,0 STARLINK-3295,1 50840U 22001AP  22018.58334491 -.00834182  00000-0 -41994-2 0  9999,2 50840  53.2172 141.3826 0001476 260.1944 251.8685 15.83027688  3150,6700.021,90.965,322.875,320.897,0.0
50840.0,STARLINK-3295,PAYLOAD,2022-01-18 22:00:00,15.82433305,0.000103,53.2172,139.7095,165.4083,87.02799999999998,-0.0042334,-0.00818885,0.0,0 STARLINK-3295,1 50840U 22001AP  22018.91667824 -.00818885  00000-0 -42334-2 0  9996,2 50840  53.2172 139.7095 0001030 165.4083  87.0280 15.82433305  2443,6701.699000000001,90.999,324.254,322.873,0.0
50840.0,STARLINK-3295,PAYLOAD,2022-01-19 14:00:01,15.81156373,0.0001332,53.2169,136.3678,83.8309,7.2907,-0.0036815,-0.00681628,0.0,0 STARLINK-3295,1 50840U 22001AP  22019.58334491 -.00681628  00000-0 -36815-2 0  9991,2 50840  53.2169 136.3678 0001332  83.8309   7.2907 15.81156373  2556,6705.306,91.073,328.065,326.278,0.0
50840.0,STARLINK-3295,PAYLOAD,2022-01-19 22:00:00,15.8067919,0.0001121,53.2171,134.6993,88.1187,101.2034,-0.0046304,-0.0082452,0.0,0 STARLINK-3295,1 50840U 22001AP  22019.91667824 -.00824520  00000-0 -46304-2 0  9991,2 50840  53.2171 134.6993 0001121  88.1187 101.2034 15.80679190  3360,6706.656,91.1,329.273,327.769,0.0
50840.0,STARLINK-3295,PAYLOAD,2022-01-20 14:00:01,15.7939648,9.16e-05,53.2168,131.3664,82.8682,300.9185,-0.0039838,-0.00680068,0.0,0 STARLINK-3295,1 50840U 22001AP  22020.58334491 -.00680068  00000-0 -39838-2 0  9998,2 50840  53.2168 131.3664 0000916  82.8682 300.9185 15.79396480  2716,6710.2869999999975,91.174,332.766,331.537,0.0
50840.0,STARLINK-3295,PAYLOAD,2022-01-20 22:00:00,15.78921078,0.0001039,53.2173,129.7018,83.28200000000002,36.5907,-0.0050091,-0.0082277999999999,0.0,0 STARLINK-3295,1 50840U 22001AP  22020.91667824 -.00822780  00000-0 -50091-2 0  9997,2 50840  53.2173 129.7018 0001039  83.2820  36.5907 15.78921078  3522,6711.6330000000025,91.202,334.196,332.801,0.0
50840.0,STARLINK-3295,PAYLOAD,2022-01-21 14:00:01,15.77648538,0.0001171,53.2169,126.3779,80.8636,229.2407,-0.0043708,-0.00688607,0.0,0 STARLINK-3295,1 50840U 22001AP  22021.58334491 -.00688607  00000-0 -43708-2 0  9997,2 50840  53.2169 126.3779 0001171  80.8636 229.2407 15.77648538  2878,6715.2419999999975,91.275,337.89300000000014,336.321,0.0
50840.0,STARLINK-3295,PAYLOAD,2022-01-21 20:00:01,15.77309297,0.0001059,53.2172,125.1331,79.9796,210.664,-0.0053718,-0.00820514,0.0,0 STARLINK-3295,1 50840U 22001AP  22021.83334491 -.00820514  00000-0 -53718-2 0  9992,2 50840  53.2172 125.1331 0001059  79.9796 210.6640 15.77309297  3661,6716.205,91.295,338.781,337.3590000000001,0.0
50840.0,STARLINK-3295,PAYLOAD,2022-01-21 22:00:00,15.77162491,9.62e-05,53.2173,124.7178,80.6865,323.4007,-0.0054077,-0.00820542,0.0,0 STARLINK-3295,1 50840U 22001AP  22021.91667824 -.00820542  00000-0 -54077-2 0  9990,2 50840  53.2173 124.7178 0000962  80.6865 323.4007 15.77162491  2925,6716.621999999999,91.303,339.1330000000001,337.84,0.0
